[
  {
    "OBJECT_NAME": "STARLINK-32915",
    "OBJECT_ID": "25043W",
    "EPOCH": "2025-11-10T18:08:26.159712",
    "MEAN_MOTION": 15.27577864,
    "ECCENTRICITY": 0.0001212,
    "INCLINATION": 43.0017,
    "RA_OF_ASC_NODE": 334.7279,
    "ARG_OF_PERICENTER": 284.2835,
    "MEAN_ANOMALY": 75.7882,
    "EPHEMERIS_TYPE": 0,
    "CLASSIFICATION_TYPE": "U",
    "NORAD_CAT_ID": 63152,
    "ELEMENT_SET_NO": 999,
    "REV_AT_EPOCH": 3909,
    "BSTAR": 0.0012429,
    "MEAN_MOTION_DOT": 0.00034095,
    "MEAN_MOTION_DDOT": 0.0,
    "TLE_LINE1": "1 63152U 25043W   25314.75585833  .00034095  00000+0  12429-2 0  9990",
    "TLE_LINE2": "2 63152  43.0017 334.7279 0001212 284.2835  75.7882 15.27577864 39097",
    "COMMENT": "Grouped by shell and plane from TLE"
  },
  {
    "OBJECT_NAME": "STARLINK-33689",
    "OBJECT_ID": "25057R",
    "EPOCH": "2025-11-11T03:50:33.845280",
    "MEAN_MOTION": 15.27592251,
    "ECCENTRICITY": 0.0001168,
    "INCLINATION": 43.0003,
    "RA_OF_ASC_NODE": 339.917,
    "ARG_OF_PERICENTER": 272.0474,
    "MEAN_ANOMALY": 88.0244,
    "EPHEMERIS_TYPE": 0,
    "CLASSIFICATION_TYPE": "U",
    "NORAD_CAT_ID": 63322,
    "ELEMENT_SET_NO": 999,
    "REV_AT_EPOCH": 3765,
    "BSTAR": 0.00078651,
    "MEAN_MOTION_DOT": 0.00021452,
    "MEAN_MOTION_DDOT": 0.0,
    "TLE_LINE1": "1 63322U 25057R   25315.16011395  .00021452  00000+0  78651-3 0  9990",
    "TLE_LINE2": "2 63322  43.0003 339.9170 0001168 272.0474  88.0244 15.27592251 37658",
    "COMMENT": "Grouped by shell and plane from TLE"
  },
  {
    "OBJECT_NAME": "STARLINK-33625",
    "OBJECT_ID": "25057W",
    "EPOCH": "2025-11-11T01:37:06.710592",
    "MEAN_MOTION": 15.27607513,
    "ECCENTRICITY": 0.0001078,
    "INCLINATION": 42.9988,
    "RA_OF_ASC_NODE": 333.1547,
    "ARG_OF_PERICENTER": 251.5268,
    "MEAN_ANOMALY": 108.5466,
    "EPHEMERIS_TYPE": 0,
    "CLASSIFICATION_TYPE": "U",
    "NORAD_CAT_ID": 63327,
    "ELEMENT_SET_NO": 999,
    "REV_AT_EPOCH": 3772,
    "BSTAR": 0.0013583999999999998,
    "MEAN_MOTION_DOT": 0.00037338,
    "MEAN_MOTION_DDOT": 0.0,
    "TLE_LINE1": "1 63327U 25057W   25315.06743878  .00037338  00000+0  13584-2 0  9995",
    "TLE_LINE2": "2 63327  42.9988 333.1547 0001078 251.5268 108.5466 15.27607513 37720",
    "COMMENT": "Grouped by shell and plane from TLE"
  },
  {
    "OBJECT_NAME": "STARLINK-33699",
    "OBJECT_ID": "25057X",
    "EPOCH": "2025-11-11T07:37:05.730816",
    "MEAN_MOTION": 15.27556102,
    "ECCENTRICITY": 0.0001274,
    "INCLINATION": 43.0022,
    "RA_OF_ASC_NODE": 331.5929,
    "ARG_OF_PERICENTER": 272.9872,
    "MEAN_ANOMALY": 87.0834,
    "EPHEMERIS_TYPE": 0,
    "CLASSIFICATION_TYPE": "U",
    "NORAD_CAT_ID": 63328,
    "ELEMENT_SET_NO": 999,
    "REV_AT_EPOCH": 3772,
    "BSTAR": 0.0013170000000000002,
    "MEAN_MOTION_DOT": 0.0003613,
    "MEAN_MOTION_DDOT": 0.0,
    "TLE_LINE1": "1 63328U 25057X   25315.31742744  .00036130  00000+0  13170-2 0  9995",
    "TLE_LINE2": "2 63328  43.0022 331.5929 0001274 272.9872  87.0834 15.27556102 37721",
    "COMMENT": "Grouped by shell and plane from TLE"
  },
  {
    "OBJECT_NAME": "STARLINK-33682",
    "OBJECT_ID": "25069A",
    "EPOCH": "2025-11-11T06:30:21.169440",
    "MEAN_MOTION": 15.30201147,
    "ECCENTRICITY": 0.0001331,
    "INCLINATION": 53.1587,
    "RA_OF_ASC_NODE": 332.5719,
    "ARG_OF_PERICENTER": 85.3511,
    "MEAN_ANOMALY": 274.7642,
    "EPHEMERIS_TYPE": 0,
    "CLASSIFICATION_TYPE": "U",
    "NORAD_CAT_ID": 63433,
    "ELEMENT_SET_NO": 999,
    "REV_AT_EPOCH": 3527,
    "BSTAR": 0.0015703000000000002,
    "MEAN_MOTION_DOT": 0.00046442,
    "MEAN_MOTION_DDOT": 0.0,
    "TLE_LINE1": "1 63433U 25069A   25315.27107835  .00046442  00000+0  15703-2 0  9997",
    "TLE_LINE2": "2 63433  53.1587 332.5719 0001331  85.3511 274.7642 15.30201147 35274",
    "COMMENT": "Grouped by shell and plane from TLE"
  },
  {
    "OBJECT_NAME": "STARLINK-33710",
    "OBJECT_ID": "25069B",
    "EPOCH": "2025-11-11T06:54:40.069728",
    "MEAN_MOTION": 15.30209696,
    "ECCENTRICITY": 0.0001276,
    "INCLINATION": 53.1578,
    "RA_OF_ASC_NODE": 332.6783,
    "ARG_OF_PERICENTER": 61.6419,
    "MEAN_ANOMALY": 298.471,
    "EPHEMERIS_TYPE": 0,
    "CLASSIFICATION_TYPE": "U",
    "NORAD_CAT_ID": 63434,
    "ELEMENT_SET_NO": 999,
    "REV_AT_EPOCH": 3527,
    "BSTAR": 0.00031104,
    "MEAN_MOTION_DOT": 8.867e-05,
    "MEAN_MOTION_DDOT": 0.0,
    "TLE_LINE1": "1 63434U 25069B   25315.28796377  .00008867  00000+0  31104-3 0  9997",
    "TLE_LINE2": "2 63434  53.1578 332.6783 0001276  61.6419 298.4710 15.30209696 35275",
    "COMMENT": "Grouped by shell and plane from TLE"
  },
  {
    "OBJECT_NAME": "STARLINK-33733",
    "OBJECT_ID": "25069C",
    "EPOCH": "2025-11-11T06:50:06.340704",
    "MEAN_MOTION": 15.30200888,
    "ECCENTRICITY": 0.0001387,
    "INCLINATION": 53.158,
    "RA_OF_ASC_NODE": 332.6615,
    "ARG_OF_PERICENTER": 82.6202,
    "MEAN_ANOMALY": 277.4957,
    "EPHEMERIS_TYPE": 0,
    "CLASSIFICATION_TYPE": "U",
    "NORAD_CAT_ID": 63435,
    "ELEMENT_SET_NO": 999,
    "REV_AT_EPOCH": 3527,
    "BSTAR": 0.00023111,
    "MEAN_MOTION_DOT": 6.492e-05,
    "MEAN_MOTION_DDOT": 0.0,
    "TLE_LINE1": "1 63435U 25069C   25315.28479561  .00006492  00000+0  23111-3 0  9992",
    "TLE_LINE2": "2 63435  53.1580 332.6615 0001387  82.6202 277.4957 15.30200888 35273",
    "COMMENT": "Grouped by shell and plane from TLE"
  },
  {
    "OBJECT_NAME": "STARLINK-33638",
    "OBJECT_ID": "25069D",
    "EPOCH": "2025-11-11T06:45:32.800896",
    "MEAN_MOTION": 15.30209665,
    "ECCENTRICITY": 0.0001195,
    "INCLINATION": 53.1582,
    "RA_OF_ASC_NODE": 332.6382,
    "ARG_OF_PERICENTER": 70.2547,
    "MEAN_ANOMALY": 289.8583,
    "EPHEMERIS_TYPE": 0,
    "CLASSIFICATION_TYPE": "U",
    "NORAD_CAT_ID": 63436,
    "ELEMENT_SET_NO": 999,
    "REV_AT_EPOCH": 3527,
    "BSTAR": 0.00047001,
    "MEAN_MOTION_DOT": 0.00013591,
    "MEAN_MOTION_DDOT": 0.0,
    "TLE_LINE1": "1 63436U 25069D   25315.28162964  .00013591  00000+0  47001-3 0  9991",
    "TLE_LINE2": "2 63436  53.1582 332.6382 0001195  70.2547 289.8583 15.30209665 35273",
    "COMMENT": "Grouped by shell and plane from TLE"
  },
  {
    "OBJECT_NAME": "STARLINK-33726",
    "OBJECT_ID": "25069E",
    "EPOCH": "2025-11-11T06:37:56.880192",
    "MEAN_MOTION": 15.3021513,
    "ECCENTRICITY": 0.0001094,
    "INCLINATION": 53.1576,
    "RA_OF_ASC_NODE": 332.6032,
    "ARG_OF_PERICENTER": 86.7972,
    "MEAN_ANOMALY": 273.3154,
    "EPHEMERIS_TYPE": 0,
    "CLASSIFICATION_TYPE": "U",
    "NORAD_CAT_ID": 63437,
    "ELEMENT_SET_NO": 999,
    "REV_AT_EPOCH": 3522,
    "BSTAR": 0.00087367,
    "MEAN_MOTION_DOT": 0.00025618,
    "MEAN_MOTION_DDOT": 0.0,
    "TLE_LINE1": "1 63437U 25069E   25315.27635278  .00025618  00000+0  87367-3 0  9996",
    "TLE_LINE2": "2 63437  53.1576 332.6032 0001094  86.7972 273.3154 15.30215130 35222",
    "COMMENT": "Grouped by shell and plane from TLE"
  },
  {
    "OBJECT_NAME": "STARLINK-33681",
    "OBJECT_ID": "25069F",
    "EPOCH": "2025-11-11T06:27:18.753984",
    "MEAN_MOTION": 15.30213202,
    "ECCENTRICITY": 0.0001376,
    "INCLINATION": 53.1591,
    "RA_OF_ASC_NODE": 332.5555,
    "ARG_OF_PERICENTER": 99.9016,
    "MEAN_ANOMALY": 260.214,
    "EPHEMERIS_TYPE": 0,
    "CLASSIFICATION_TYPE": "U",
    "NORAD_CAT_ID": 63438,
    "ELEMENT_SET_NO": 999,
    "REV_AT_EPOCH": 3527,
    "BSTAR": 0.0014724999999999999,
    "MEAN_MOTION_DOT": 0.00043526,
    "MEAN_MOTION_DDOT": 0.0,
    "TLE_LINE1": "1 63438U 25069F   25315.26896706  .00043526  00000+0  14725-2 0  9996",
    "TLE_LINE2": "2 63438  53.1591 332.5555 0001376  99.9016 260.2140 15.30213202 35270",
    "COMMENT": "Grouped by shell and plane from TLE"
  },
  {
    "OBJECT_NAME": "STARLINK-33730",
    "OBJECT_ID": "25069G",
    "EPOCH": "2025-11-11T07:23:22.867584",
    "MEAN_MOTION": 15.30193214,
    "ECCENTRICITY": 6.97e-05,
    "INCLINATION": 53.1618,
    "RA_OF_ASC_NODE": 332.089,
    "ARG_OF_PERICENTER": 104.1764,
    "MEAN_ANOMALY": 255.9314,
    "EPHEMERIS_TYPE": 0,
    "CLASSIFICATION_TYPE": "U",
    "NORAD_CAT_ID": 63439,
    "ELEMENT_SET_NO": 999,
    "REV_AT_EPOCH": 3528,
    "BSTAR": 0.0011298,
    "MEAN_MOTION_DOT": 0.00033244,
    "MEAN_MOTION_DDOT": 0.0,
    "TLE_LINE1": "1 63439U 25069G   25315.30790356  .00033244  00000+0  11298-2 0  9994",
    "TLE_LINE2": "2 63439  53.1618 332.0890 0000697 104.1764 255.9314 15.30193214 35287",
    "COMMENT": "Grouped by shell and plane from TLE"
  },
  {
    "OBJECT_NAME": "STARLINK-33743",
    "OBJECT_ID": "25069H",
    "EPOCH": "2025-11-11T06:40:59.207520",
    "MEAN_MOTION": 15.30213835,
    "ECCENTRICITY": 0.0001129,
    "INCLINATION": 53.158,
    "RA_OF_ASC_NODE": 332.6138,
    "ARG_OF_PERICENTER": 74.3864,
    "MEAN_ANOMALY": 285.7261,
    "EPHEMERIS_TYPE": 0,
    "CLASSIFICATION_TYPE": "U",
    "NORAD_CAT_ID": 63440,
    "ELEMENT_SET_NO": 999,
    "REV_AT_EPOCH": 3516,
    "BSTAR": 0.00082669,
    "MEAN_MOTION_DOT": 0.00024215,
    "MEAN_MOTION_DDOT": 0.0,
    "TLE_LINE1": "1 63440U 25069H   25315.27846305  .00024215  00000+0  82669-3 0  9997",
    "TLE_LINE2": "2 63440  53.1580 332.6138 0001129  74.3864 285.7261 15.30213835 35169",
    "COMMENT": "Grouped by shell and plane from TLE"
  },
  {
    "OBJECT_NAME": "STARLINK-33715",
    "OBJECT_ID": "25069J",
    "EPOCH": "2025-11-11T06:36:25.761888",
    "MEAN_MOTION": 15.30212518,
    "ECCENTRICITY": 0.0001647,
    "INCLINATION": 53.158,
    "RA_OF_ASC_NODE": 332.5899,
    "ARG_OF_PERICENTER": 90.6228,
    "MEAN_ANOMALY": 269.4962,
    "EPHEMERIS_TYPE": 0,
    "CLASSIFICATION_TYPE": "U",
    "NORAD_CAT_ID": 63441,
    "ELEMENT_SET_NO": 999,
    "REV_AT_EPOCH": 3527,
    "BSTAR": 0.00057797,
    "MEAN_MOTION_DOT": 0.00016804,
    "MEAN_MOTION_DDOT": 0.0,
    "TLE_LINE1": "1 63441U 25069J   25315.27529817  .00016804  00000+0  57797-3 0  9993",
    "TLE_LINE2": "2 63441  53.1580 332.5899 0001647  90.6228 269.4962 15.30212518 35279",
    "COMMENT": "Grouped by shell and plane from TLE"
  }
]